{
  "type": "FeatureCollection",
  "features": [
    {
      "type": "Feature",
      "properties": {
        "norad_id": 28890,
        "name": "BEIJING 1",
        "group": "dmc",
        "lat": 43.18108118804675,
        "lon": 112.33818834813789,
        "alt_km": 676.7638081756777,
        "timestamp": "2025-12-18T15:47:10.886919+00:00",
        "meta_object_name": "BEIJING 1",
        "meta_object_id": "2005-043A",
        "meta_epoch": "2025-12-18T07:22:54.721056",
        "meta_mean_motion": 14.63371399,
        "meta_eccentricity": 0.00155561,
        "meta_inclination": 98.2648,
        "meta_ra_of_asc_node": 119.8272,
        "meta_arg_of_pericenter": 124.763,
        "meta_mean_anomaly": 235.5038,
        "meta_ephemeris_type": 0,
        "meta_classification_type": "U",
        "meta_norad_cat_id": 28890,
        "meta_element_set_no": 999,
        "meta_rev_at_epoch": 7419,
        "meta_bstar": 7.0780557e-05,
        "meta_mean_motion_dot": 3.17e-06,
        "meta_mean_motion_ddot": 0,
        "tle_line1": "1 28890U 05043A   25352.30757779  .00000317  00000+0  70781-4 0  9998",
        "tle_line2": "2 28890  98.2648 119.8272 0015556 124.7630 235.5038 14.63371399 74194"
      },
      "geometry": {
        "type": "Point",
        "coordinates": [
          112.33818834813789,
          43.18108118804675
        ]
      }
    },
    {
      "type": "Feature",
      "properties": {
        "norad_id": 33320,
        "name": "HUANJING 1A (HJ-1A)",
        "group": "dmc",
        "lat": 41.92569502669484,
        "lon": 167.64566530564167,
        "alt_km": 622.5139881553814,
        "timestamp": "2025-12-18T15:47:10.886944+00:00",
        "meta_object_name": "HUANJING 1A (HJ-1A)",
        "meta_object_id": "2008-041A",
        "meta_epoch": "2025-12-18T07:04:30.689760",
        "meta_mean_motion": 14.83412047,
        "meta_eccentricity": 0.00198321,
        "meta_inclination": 97.6536,
        "meta_ra_of_asc_node": 340.3617,
        "meta_arg_of_pericenter": 16.8384,
        "meta_mean_anomaly": 343.3484,
        "meta_ephemeris_type": 0,
        "meta_classification_type": "U",
        "meta_norad_cat_id": 33320,
        "meta_element_set_no": 999,
        "meta_rev_at_epoch": 93158,
        "meta_bstar": 0.00013597618,
        "meta_mean_motion_dot": 1.068e-05,
        "meta_mean_motion_ddot": 0,
        "tle_line1": "1 33320U 08041A   25352.29479965  .00001068  00000+0  13598-3 0  9995",
        "tle_line2": "2 33320  97.6536 340.3617 0019832  16.8384 343.3484 14.83412047931585"
      },
      "geometry": {
        "type": "Point",
        "coordinates": [
          167.64566530564167,
          41.92569502669484
        ]
      }
    },
    {
      "type": "Feature",
      "properties": {
        "norad_id": 33321,
        "name": "HUANJING 1B (HJ-1B)",
        "group": "dmc",
        "lat": -14.21745928931919,
        "lon": -13.66010151905405,
        "alt_km": 616.3338956399484,
        "timestamp": "2025-12-18T15:47:10.886959+00:00",
        "meta_object_name": "HUANJING 1B (HJ-1B)",
        "meta_object_id": "2008-041B",
        "meta_epoch": "2025-12-18T06:08:00.999168",
        "meta_mean_motion": 14.82834207,
        "meta_eccentricity": 0.00380838,
        "meta_inclination": 97.6396,
        "meta_ra_of_asc_node": 344.0067,
        "meta_arg_of_pericenter": 58.1646,
        "meta_mean_anomaly": 302.3267,
        "meta_ephemeris_type": 0,
        "meta_classification_type": "U",
        "meta_norad_cat_id": 33321,
        "meta_element_set_no": 999,
        "meta_rev_at_epoch": 93159,
        "meta_bstar": 8.7988988e-05,
        "meta_mean_motion_dot": 6.69e-06,
        "meta_mean_motion_ddot": 0,
        "tle_line1": "1 33321U 08041B   25352.25556712  .00000669  00000+0  87989-4 0  9990",
        "tle_line2": "2 33321  97.6396 344.0067 0038083  58.1646 302.3267 14.82834207931599"
      },
      "geometry": {
        "type": "Point",
        "coordinates": [
          -13.66010151905405,
          -14.21745928931919
        ]
      }
    },
    {
      "type": "Feature",
      "properties": {
        "norad_id": 33446,
        "name": "YAOGAN-4",
        "group": "dmc",
        "lat": -73.03460825081119,
        "lon": 75.55323780774222,
        "alt_km": 621.8920193877266,
        "timestamp": "2025-12-18T15:47:10.886970+00:00",
        "meta_object_name": "YAOGAN-4",
        "meta_object_id": "2008-061A",
        "meta_epoch": "2025-12-18T06:32:26.388096",
        "meta_mean_motion": 14.82698569,
        "meta_eccentricity": 0.00132388,
        "meta_inclination": 97.9188,
        "meta_ra_of_asc_node": 282.3175,
        "meta_arg_of_pericenter": 303.9504,
        "meta_mean_anomaly": 56.0451,
        "meta_ephemeris_type": 0,
        "meta_classification_type": "U",
        "meta_norad_cat_id": 33446,
        "meta_element_set_no": 999,
        "meta_rev_at_epoch": 91885,
        "meta_bstar": 0.0001445107,
        "meta_mean_motion_dot": 1.114e-05,
        "meta_mean_motion_ddot": 0,
        "tle_line1": "1 33446U 08061A   25352.27252764  .00001114  00000+0  14451-3 0  9991",
        "tle_line2": "2 33446  97.9188 282.3175 0013238 303.9504  56.0451 14.82698569918853"
      },
      "geometry": {
        "type": "Point",
        "coordinates": [
          75.55323780774222,
          -73.03460825081119
        ]
      }
    },
    {
      "type": "Feature",
      "properties": {
        "norad_id": 35681,
        "name": "DEIMOS-1",
        "group": "dmc",
        "lat": -39.870568333434754,
        "lon": -33.51616773680883,
        "alt_km": 653.432269619947,
        "timestamp": "2025-12-18T15:47:10.886981+00:00",
        "meta_object_name": "DEIMOS-1",
        "meta_object_id": "2009-041A",
        "meta_epoch": "2025-12-18T06:39:01.414080",
        "meta_mean_motion": 14.74960066,
        "meta_eccentricity": 0.00026555,
        "meta_inclination": 97.7142,
        "meta_ra_of_asc_node": 152.6219,
        "meta_arg_of_pericenter": 70.9033,
        "meta_mean_anomaly": 289.2464,
        "meta_ephemeris_type": 0,
        "meta_classification_type": "U",
        "meta_norad_cat_id": 35681,
        "meta_element_set_no": 999,
        "meta_rev_at_epoch": 88021,
        "meta_bstar": 5.595024e-05,
        "meta_mean_motion_dot": 3.29e-06,
        "meta_mean_motion_ddot": 0,
        "tle_line1": "1 35681U 09041A   25352.27709970  .00000329  00000+0  55950-4 0  9996",
        "tle_line2": "2 35681  97.7142 152.6219 0002655  70.9033 289.2464 14.74960066880218"
      },
      "geometry": {
        "type": "Point",
        "coordinates": [
          -33.51616773680883,
          -39.870568333434754
        ]
      }
    },
    {
      "type": "Feature",
      "properties": {
        "norad_id": 35683,
        "name": "UK-DMC 2",
        "group": "dmc",
        "lat": -68.2630099199543,
        "lon": -72.86788549578182,
        "alt_km": 651.3647181429133,
        "timestamp": "2025-12-18T15:47:10.886992+00:00",
        "meta_object_name": "UK-DMC 2",
        "meta_object_id": "2009-041C",
        "meta_epoch": "2025-12-18T08:08:56.167008",
        "meta_mean_motion": 14.75633298,
        "meta_eccentricity": 0.00014845,
        "meta_inclination": 97.8556,
        "meta_ra_of_asc_node": 127.0835,
        "meta_arg_of_pericenter": 93.9776,
        "meta_mean_anomaly": 266.1603,
        "meta_ephemeris_type": 0,
        "meta_classification_type": "U",
        "meta_norad_cat_id": 35683,
        "meta_element_set_no": 999,
        "meta_rev_at_epoch": 87989,
        "meta_bstar": 0.00011271453,
        "meta_mean_motion_dot": 7.2e-06,
        "meta_mean_motion_ddot": 0,
        "tle_line1": "1 35683U 09041C   25352.33953897  .00000720  00000+0  11271-3 0  9996",
        "tle_line2": "2 35683  97.8556 127.0835 0001484  93.9776 266.1603 14.75633298879894"
      },
      "geometry": {
        "type": "Point",
        "coordinates": [
          -72.86788549578182,
          -68.2630099199543
        ]
      }
    },
    {
      "type": "Feature",
      "properties": {
        "norad_id": 40715,
        "name": "DMC3-FM1",
        "group": "dmc",
        "lat": 32.24975272512865,
        "lon": 44.511559041481185,
        "alt_km": 612.9895135139141,
        "timestamp": "2025-12-18T15:47:10.887003+00:00",
        "meta_object_name": "DMC3-FM1",
        "meta_object_id": "2015-032A",
        "meta_epoch": "2025-12-18T07:02:29.963904",
        "meta_mean_motion": 14.85448714,
        "meta_eccentricity": 0.0004333,
        "meta_inclination": 97.6694,
        "meta_ra_of_asc_node": 219.2833,
        "meta_arg_of_pericenter": 300.1001,
        "meta_mean_anomaly": 59.9785,
        "meta_ephemeris_type": 0,
        "meta_classification_type": "U",
        "meta_norad_cat_id": 40715,
        "meta_element_set_no": 999,
        "meta_rev_at_epoch": 56305,
        "meta_bstar": 2.8845309e-05,
        "meta_mean_motion_dot": 1.97e-06,
        "meta_mean_motion_ddot": 0,
        "tle_line1": "1 40715U 15032A   25352.29340236  .00000197  00000+0  28845-4 0  9991",
        "tle_line2": "2 40715  97.6694 219.2833 0004333 300.1001  59.9785 14.85448714563054"
      },
      "geometry": {
        "type": "Point",
        "coordinates": [
          44.511559041481185,
          32.24975272512865
        ]
      }
    },
    {
      "type": "Feature",
      "properties": {
        "norad_id": 40716,
        "name": "DMC3-FM2",
        "group": "dmc",
        "lat": 26.84072351934993,
        "lon": -142.83070484048187,
        "alt_km": 610.782739168375,
        "timestamp": "2025-12-18T15:47:10.887013+00:00",
        "meta_object_name": "DMC3-FM2",
        "meta_object_id": "2015-032B",
        "meta_epoch": "2025-12-18T05:57:53.149248",
        "meta_mean_motion": 14.85449166,
        "meta_eccentricity": 0.00049526,
        "meta_inclination": 97.6751,
        "meta_ra_of_asc_node": 220.6877,
        "meta_arg_of_pericenter": 305.3169,
        "meta_mean_anomaly": 54.7583,
        "meta_ephemeris_type": 0,
        "meta_classification_type": "U",
        "meta_norad_cat_id": 40716,
        "meta_element_set_no": 999,
        "meta_rev_at_epoch": 56304,
        "meta_bstar": 3.5377966e-05,
        "meta_mean_motion_dot": 2.53e-06,
        "meta_mean_motion_ddot": 0,
        "tle_line1": "1 40716U 15032B   25352.24853182  .00000253  00000+0  35378-4 0  9998",
        "tle_line2": "2 40716  97.6751 220.6877 0004952 305.3169  54.7583 14.85449166563042"
      },
      "geometry": {
        "type": "Point",
        "coordinates": [
          -142.83070484048187,
          26.84072351934993
        ]
      }
    },
    {
      "type": "Feature",
      "properties": {
        "norad_id": 40717,
        "name": "DMC3-FM3",
        "group": "dmc",
        "lat": -82.20509562423636,
        "lon": -56.93964311945281,
        "alt_km": 617.1243164908938,
        "timestamp": "2025-12-18T15:47:10.887039+00:00",
        "meta_object_name": "DMC3-FM3",
        "meta_object_id": "2015-032C",
        "meta_epoch": "2025-12-18T06:29:05.388000",
        "meta_mean_motion": 14.85438231,
        "meta_eccentricity": 0.00042377,
        "meta_inclination": 97.6806,
        "meta_ra_of_asc_node": 222.3454,
        "meta_arg_of_pericenter": 306.8573,
        "meta_mean_anomaly": 53.2254,
        "meta_ephemeris_type": 0,
        "meta_classification_type": "U",
        "meta_norad_cat_id": 40717,
        "meta_element_set_no": 999,
        "meta_rev_at_epoch": 56305,
        "meta_bstar": 8.6922264e-05,
        "meta_mean_motion_dot": 6.98e-06,
        "meta_mean_motion_ddot": 0,
        "tle_line1": "1 40717U 15032C   25352.27020125  .00000698  00000+0  86922-4 0  9999",
        "tle_line2": "2 40717  97.6806 222.3454 0004237 306.8573  53.2254 14.85438231563056"
      },
      "geometry": {
        "type": "Point",
        "coordinates": [
          -56.93964311945281,
          -82.20509562423636
        ]
      }
    }
  ]
}